{"source":"france-geojson (Gr\u00e9goire David), d\u00e9partements version simplifi\u00e9e, Licence Ouverte Etalab, donn\u00e9es IGN/INSEE","features":[{"type":"Feature","geometry":{"type":"Polygon","coordinates":[[[4.780213475718984,46.176677022719375],[4.7945808953124605,46.21831635025701],[4.807756868341096,46.23696871115128],[4.810994882268941,46.25992151697563],[4.825956808265179,46.27478753204555],[4.831827095028622,46.29688694217226],[4.852756157390729,46.328199775494426],[4.851457022538043,46.35626925172072],[4.8882077017045455,46.40298160185766],[4.891817622919295,46.43991436571944],[4.915786922554027,46.465410523692164],[4.915557341962093,46.48894113481689],[4.935598865656449,46.514228992728945],[5.004307716480809,46.51041518184386],[5.027777929725955,46.49358075779722],[5.056433075236103,46.48392614751307],[5.107377093416356,46.49191576160186],[5.137248163610305,46.509322673438184],[5.172664602566099,46.513447365613864],[5.201145471995378,46.50821850614692],[5.215064143095116,46.46835927312158],[5.25581668314639,46.451923595866475],[5.310560613770375,46.446766420719875],[5.319500329420964,46.430811362520714],[5.298803013245869,46.41268163222961],[5.341420750039618,46.40179770821096],[5.375550503997551,46.380228055197534],[5.373462288620209,46.35223630468514],[5.401973542783007,46.33904473846451],[5.425824019124199,46.33893598335614],[5.437795113853317,46.31511297122548],[5.466922894957274,46.32326983579511],[5.475143359983399,46.314983312313444],[5.4568376845310524,46.27447818647901],[5.4730553115738125,46.26506376332347],[5.5202584619727855,46.264154428816624],[5.542037828826235,46.27020190870743],[5.566359117801653,46.29405393089148],[5.597401953530867,46.29717016200506],[5.617647005041448,46.32909642404822],[5.649352566100887,46.33949973060812],[5.6845818644582415,46.31092471469043],[5.714717731644379,46.30876884774591],[5.715004075499846,46.281794854191894],[5.725183003095842,46.26072920479395],[5.76565366968616,46.26829459697285],[5.849846074176259,46.26206360332615],[5.878362837898188,46.26923930243743],[5.894626274200642,46.286605180505944],[5.908938421371525,46.283951620059554],[5.918004636082658,46.30919342038628],[5.94141074779852,46.309447376328514],[5.983619269600146,46.36236225578993],[6.029516385230691,46.38681597881577],[6.06400848181829,46.41622698893153],[6.098192550862728,46.4087886309623],[6.169741660312734,46.36793686221589],[6.121274356078805,46.31370764747048],[6.119369631480403,46.29490719406557],[6.102638404712805,46.28506396607944],[6.124247271884754,46.25101201647218],[6.101761179926224,46.23748787561317],[6.088183203547555,46.24681497717057],[6.033127717153324,46.23799614420531],[6.0025553835169445,46.220910810001136],[5.978439780731028,46.216958336715976],[5.963675623254598,46.19696085882454],[5.992165784426486,46.18661733755954],[5.956063159932633,46.13208943594269],[5.922266804802187,46.13147760862653],[5.8924200086063525,46.118482302607056],[5.883180329915085,46.08491752032048],[5.855667958392184,46.08676688670444],[5.832300912634432,46.10599585856304],[5.8114184967701625,46.07842009259869],[5.806996561909532,46.043829800018194],[5.812398928975968,46.02398062317354],[5.809643351753076,45.98979960381866],[5.834025839734275,45.972026538215985],[5.831226413621035,45.93845957829322],[5.8285402770414905,45.909296035615355],[5.80366973107069,45.85558153164841],[5.786777683247082,45.80940611504179],[5.77937453777779,45.76217553185385],[5.783495254205752,45.74431423922736],[5.756676853365063,45.70873356110276],[5.704119379498135,45.710926329459184],[5.708336503736496,45.683064766572876],[5.687058475150925,45.66816731077608],[5.689187102194641,45.64850161239945],[5.659528303353562,45.638682809874865],[5.623748035268078,45.61326832676418],[5.602655500360425,45.651527036877965],[5.586411372003499,45.66707375970352],[5.552743866622332,45.67988793690172],[5.5757522584808825,45.69178828956468],[5.5455415978088505,45.71359345746488],[5.52567323556446,45.71672537840989],[5.516232131684801,45.73225264077732],[5.482525465260449,45.754586398783026],[5.457406410775327,45.78099315590627],[5.422469140800665,45.80730767616671],[5.434944676804955,45.831093776494285],[5.413134793996487,45.85221987973304],[5.351020842949957,45.883709517437694],[5.329298728282268,45.86357404303832],[5.302019342914551,45.84764710800802],[5.288915017040864,45.81112188995001],[5.266894883868229,45.78936901099017],[5.221074288749879,45.76845271626348],[5.191532760208242,45.771688000938774],[5.176892976082814,45.7934833284559],[5.1603687442585455,45.80231368825673],[5.101067478338776,45.81337808264365],[5.044790298055403,45.8117360670572],[5.013451311336389,45.80505705540713],[4.963083585101699,45.81097052424602],[4.918340642420571,45.80702873296715],[4.916119464335568,45.84545668995466],[4.9012173780094885,45.86033670744545],[4.909016569606379,45.87410386475139],[4.88382693945437,45.879994069300665],[4.88069852397936,45.897169382005984],[4.8480352687938995,45.91297548186924],[4.805177333218323,45.89632861459743],[4.805862172264801,45.921565090394125],[4.7885556818887975,45.92396575312498],[4.771751698096339,45.939227157903346],[4.737325990745241,45.938166671490364],[4.729096921230878,45.94909221230217],[4.754510768697905,45.972272809968736],[4.74583632453276,46.03479022524953],[4.739924532383598,46.044545739209596],[4.76168298760261,46.068835281873454],[4.74842216438804,46.092116678231136],[4.7974461577782055,46.14070125939972],[4.802383406855843,46.15689004179432],[4.780213475718984,46.176677022719375]]]},"properties":{"code":"01","nom":"Ain"}},{"type":"Feature","geometry":{"type":"Polygon","coordinates":[[[5.676037325543462,44.19143313185896],[5.692087450380134,44.186483371831564],[5.713913055297651,44.19926568716529],[5.755494196596879,44.210207765237854],[5.776514541341646,44.2055259364244],[5.795385785142977,44.21345893688929],[5.8285720679377535,44.20066569733914],[5.909305399486612,44.19046630820442],[5.9147400564445745,44.203427232845094],[5.881793583616446,44.210998662542806],[5.860019043661206,44.245092101540315],[5.826655362130932,44.26251076006967],[5.823911889045941,44.27890195531252],[5.848477759938248,44.30072259452234],[5.877120986906842,44.28879843672459],[5.880129754573656,44.271011382120214],[5.913194557888511,44.248711120610594],[5.912998227051449,44.26831617376552],[5.9255909605950015,44.30855111867347],[5.896099604509158,44.31861879667804],[5.937356413024749,44.35935610859397],[5.9536703829504924,44.395059266699214],[5.977799438785809,44.40736292380458],[6.020374443332653,44.42005811336259],[6.026308275440297,44.434642097388625],[6.072442979890107,44.45207608038503],[6.079694848017664,44.475530907704965],[6.1160166804432015,44.47546505487432],[6.155615049010709,44.46195982298558],[6.156254785052348,44.44210331855112],[6.173565741653668,44.43954286595121],[6.228221718294849,44.381700391997015],[6.241680881439521,44.38485438747808],[6.262494510552066,44.41224966674437],[6.236135472030146,44.46144449835514],[6.262825636989673,44.46549564526641],[6.293492428153158,44.48092732291776],[6.323106052174982,44.46382948496176],[6.33862266220802,44.47283907420384],[6.348272978050237,44.49809023202587],[6.332395681132657,44.50999616152816],[6.3573108201414845,44.52263889176314],[6.39880869108101,44.4941562144314],[6.411180249066938,44.47096856265119],[6.433358303001146,44.472514470120075],[6.462013547991893,44.46247217356771],[6.4693180033119155,44.45131246990398],[6.533276938209056,44.45197395122282],[6.547366766497952,44.44676331416215],[6.63229969332171,44.44691502790709],[6.643650285023153,44.487759305292435],[6.6684970592870565,44.500299753706706],[6.680922896471837,44.54102548605375],[6.701153206618136,44.538996840218914],[6.737180942222513,44.55253559808428],[6.766943196052187,44.586952404898014],[6.799941325461042,44.604244109554145],[6.853900769395612,44.61475859917988],[6.85814264425923,44.62805845533632],[6.880124364018876,44.62999271969987],[6.914488202179287,44.65949945810214],[6.948335091404861,44.65481629914676],[6.962336081450481,44.62657915489668],[6.948379982167533,44.61745199059853],[6.932733186254122,44.59270863771759],[6.9319953299582595,44.572724638567955],[6.913213082531437,44.558826349687266],[6.8760332305264455,44.550160873365996],[6.854013487274841,44.529129653944196],[6.865674424523799,44.4950039431701],[6.881970580210891,44.477261501575526],[6.906339114831614,44.46684649800382],[6.911101127447187,44.45236482780562],[6.937139400716047,44.43887286300481],[6.937079169120725,44.42969968048132],[6.892869620487909,44.42078067903776],[6.896507825430464,44.374299547914674],[6.88742990090296,44.36104783803612],[6.856147812069906,44.342952907783264],[6.839688603111202,44.34616952567193],[6.811873213958045,44.33221347515919],[6.796090992510113,44.3161057075123],[6.7863504827742736,44.28849643698575],[6.762927060646822,44.279037241415196],[6.759092155836728,44.26206489740905],[6.724182328511966,44.249467455280936],[6.718344217584288,44.21071074917548],[6.686536427072904,44.16925393086098],[6.705499890845224,44.144466155776314],[6.707586373017441,44.124473345545944],[6.736610415319581,44.10225823836325],[6.7552927685949316,44.078606159081765],[6.74580308295055,44.04269169406513],[6.795850869439254,44.00702405029123],[6.838726887709297,43.98970431437945],[6.849124623100394,43.95555833887359],[6.875468351966293,43.95281563358485],[6.884040903481558,43.93530101735706],[6.913088787529998,43.92796536503886],[6.941753698705185,43.89697361215048],[6.884610185550847,43.88912075689405],[6.876620003660876,43.89859537972932],[6.830709312232406,43.91836301148648],[6.804290312432095,43.910790628356104],[6.781621637708193,43.883549262987735],[6.748392415086803,43.87167747871268],[6.697323345466608,43.87365480225297],[6.698718605090542,43.85521098299028],[6.677914955878909,43.850959763474634],[6.667938865272228,43.83092697652154],[6.703701880641647,43.822825820470534],[6.70606421451232,43.80841245654836],[6.641524167665496,43.795472444882115],[6.636395800176684,43.788950567095455],[6.619973007874097,43.80550530861199],[6.585317018818273,43.80050767551297],[6.558904687579015,43.7841955441722],[6.52476198332243,43.80636597788804],[6.482076253327453,43.791074426311035],[6.4388083985564,43.797745193516654],[6.4144280526034985,43.79159445843418],[6.413483066219063,43.760360418472196],[6.3835404106739695,43.73442775895217],[6.356960735074889,43.73636766488724],[6.3267516313932,43.74662594026461],[6.262893011516566,43.781882078680276],[6.254215459954332,43.800433718328094],[6.212407106246491,43.79839605677458],[6.188517764066482,43.776267312514086],[6.182886008281907,43.76217559136371],[6.140796857826169,43.73769553098114],[6.1036091865345306,43.73722227951302],[6.077305911948532,43.70817081210753],[6.036131813943926,43.69416334085516],[6.039033980651841,43.67892716093395],[6.021735021476141,43.66827944245308],[6.005007067617743,43.68778786403108],[5.987939406703312,43.69505659267458],[5.98543773624429,43.71396312876724],[5.9564454360651595,43.719401124766904],[5.937998300025333,43.73057120981495],[5.937716232260396,43.75023611335413],[5.903517180339531,43.751432620885154],[5.901533390582641,43.73289106389851],[5.849146371217722,43.72025525749223],[5.8278752703448715,43.748065843473604],[5.781343238677484,43.75565738832376],[5.757332977582704,43.72940911375532],[5.7491639540055255,43.7405464918297],[5.7184242970991175,43.75512132052309],[5.713394551246806,43.77950341891952],[5.684551176087874,43.78850163078797],[5.674483353980397,43.807360446333846],[5.654445137414141,43.82511098585937],[5.627700103254839,43.830927143331614],[5.574599751241474,43.83029407148107],[5.54452228126406,43.81819693654997],[5.549174903324726,43.8514199844283],[5.573186434978607,43.86492031403171],[5.6064371876892,43.91613043943877],[5.579927197959687,43.925980406162694],[5.558844627129812,43.942576073587574],[5.544991957929805,43.93905484015686],[5.51208954255573,43.94600228564646],[5.508647939314863,43.959839793825395],[5.518062394104204,43.99011201336662],[5.543633878090188,44.02596177811475],[5.544598165016952,44.06989191567907],[5.5026367853279545,44.06343920865494],[5.498787806458752,44.11571934778835],[5.540435810430644,44.13221365213216],[5.551327343869811,44.14979115926589],[5.582976621063447,44.15762325973775],[5.564374392120529,44.17090170649433],[5.576187167563138,44.18804165094906],[5.609572963808623,44.18817112634557],[5.63959354437225,44.16758605191366],[5.6316731817286305,44.15136802990124],[5.67860502821166,44.14608869344783],[5.68271535182101,44.16321640945639],[5.646965152793732,44.166291647187435],[5.651592585237082,44.18957707724826],[5.676037325543462,44.19143313185896]]]},"properties":{"code":"04","nom":"Alpes-de-Haute-Provence"}},{"type":"Feature","geometry":{"type":"Polygon","coordinates":[[[6.260566197557925,45.12684791386632],[6.299216785815758,45.10855211143577],[6.3312977067397425,45.11812379084807],[6.362935515883446,45.10449356656247],[6.373529600716985,45.08414824428705],[6.364877554955543,45.07017079687575],[6.393914586674507,45.06181851097421],[6.438596097282185,45.06258355349038],[6.451799595532319,45.05172052616644],[6.486234598441578,45.05607309559144],[6.480384256020366,45.09079271505677],[6.510979894458294,45.10875068557236],[6.529708447474563,45.09856919735164],[6.55601396596344,45.104195104315984],[6.57653069592537,45.12309720037721],[6.615550094957373,45.12147775227429],[6.6299873381374725,45.1093269281999],[6.627487761756953,45.10121505030452],[6.662113977091666,45.07163521564911],[6.658833037991113,45.0522106577603],[6.672439472064712,45.02142288028361],[6.7256836969428715,45.02150040053337],[6.743421512935462,45.015920279449546],[6.751188313816809,44.99755867124376],[6.7376342538806036,44.99148903315492],[6.763468605707418,44.971219657081626],[6.753079854453953,44.94296106206407],[6.750709573838057,44.90565221939063],[6.771184461028274,44.90344432994035],[6.805918328309796,44.87664147794964],[6.863241048677118,44.850610814016996],[6.913770297405167,44.84542283675211],[6.933687243037528,44.862026072008646],[6.972609983994274,44.84623344849374],[7.0067737788907705,44.839315967633134],[7.018283625506064,44.81230540654565],[6.9995712397492555,44.78944471324736],[7.024748601836657,44.76238093071902],[7.024189433792721,44.74131576508321],[7.043683920015221,44.71814050323442],[7.06578600052752,44.71360743394211],[7.077108800206922,44.68091750917342],[7.059729404484276,44.67996132818681],[7.023734517020338,44.6913011223226],[6.98622673933706,44.68808002657876],[6.957471911814601,44.66982246847716],[6.948335091404861,44.65481629914676],[6.914488202179287,44.65949945810214],[6.880124364018876,44.62999271969987],[6.85814264425923,44.62805845533632],[6.853900769395612,44.61475859917988],[6.799941325461042,44.604244109554145],[6.766943196052187,44.586952404898014],[6.737180942222513,44.55253559808428],[6.701153206618136,44.538996840218914],[6.680922896471837,44.54102548605375],[6.6684970592870565,44.500299753706706],[6.643650285023153,44.487759305292435],[6.63229969332171,44.44691502790709],[6.547366766497952,44.44676331416215],[6.533276938209056,44.45197395122282],[6.4693180033119155,44.45131246990398],[6.462013547991893,44.46247217356771],[6.433358303001146,44.472514470120075],[6.411180249066938,44.47096856265119],[6.39880869108101,44.4941562144314],[6.3573108201414845,44.52263889176314],[6.332395681132657,44.50999616152816],[6.348272978050237,44.49809023202587],[6.33862266220802,44.47283907420384],[6.323106052174982,44.46382948496176],[6.293492428153158,44.48092732291776],[6.262825636989673,44.46549564526641],[6.236135472030146,44.46144449835514],[6.262494510552066,44.41224966674437],[6.241680881439521,44.38485438747808],[6.228221718294849,44.381700391997015],[6.173565741653668,44.43954286595121],[6.156254785052348,44.44210331855112],[6.155615049010709,44.46195982298558],[6.1160166804432015,44.47546505487432],[6.079694848017664,44.475530907704965],[6.072442979890107,44.45207608038503],[6.026308275440297,44.434642097388625],[6.020374443332653,44.42005811336259],[5.977799438785809,44.40736292380458],[5.9536703829504924,44.395059266699214],[5.937356413024749,44.35935610859397],[5.896099604509158,44.31861879667804],[5.9255909605950015,44.30855111867347],[5.912998227051449,44.26831617376552],[5.913194557888511,44.248711120610594],[5.880129754573656,44.271011382120214],[5.877120986906842,44.28879843672459],[5.848477759938248,44.30072259452234],[5.823911889045941,44.27890195531252],[5.826655362130932,44.26251076006967],[5.860019043661206,44.245092101540315],[5.881793583616446,44.210998662542806],[5.9147400564445745,44.203427232845094],[5.909305399486612,44.19046630820442],[5.8285720679377535,44.20066569733914],[5.795385785142977,44.21345893688929],[5.776514541341646,44.2055259364244],[5.755494196596879,44.210207765237854],[5.713913055297651,44.19926568716529],[5.692087450380134,44.186483371831564],[5.676037325543462,44.19143313185896],[5.681311859737585,44.23289466958045],[5.672996044869041,44.23984311301397],[5.676206589256276,44.27551099308782],[5.647509019416229,44.27247769824454],[5.631970064900461,44.284721309902835],[5.637756422122977,44.29968616697366],[5.608077262744189,44.30850908328983],[5.617135908418277,44.332475894185805],[5.5373670436986435,44.333525718131106],[5.521782790630088,44.34931163553876],[5.4930715607447445,44.33717752081172],[5.46941457400079,44.35149029453098],[5.46065693964672,44.36832054562284],[5.434953500862137,44.36911743294876],[5.443026623183156,44.391237330733084],[5.418530667075709,44.424947370319],[5.447194165800079,44.431852481873705],[5.4764897049095795,44.41972379409436],[5.498303440849121,44.43732497621575],[5.464433745418449,44.44788666870274],[5.458727518186473,44.46614393059478],[5.4798758917737445,44.49123966897652],[5.516510011697751,44.49138247772147],[5.562404689872195,44.47485185176209],[5.603651238319425,44.465544996850255],[5.6163088106464185,44.47271206540212],[5.629785093116038,44.5011871029685],[5.664504139914002,44.501894032401594],[5.627373773874302,44.53458025973445],[5.5972487980667855,44.543273727979226],[5.617737322579476,44.583133580603594],[5.643926214041127,44.60972161106435],[5.641715054881292,44.65107468886509],[5.726039426074854,44.63939834273572],[5.753939211901072,44.662713661324155],[5.790619766631355,44.65329030204328],[5.799407769469486,44.67394966436931],[5.825802514085463,44.68569233800322],[5.82711625324567,44.70028877822114],[5.801469996094522,44.706778512869995],[5.82777670542201,44.7400904212036],[5.846789359515513,44.75162114202083],[5.888833543818295,44.74880281266777],[5.900145988864039,44.75831810886521],[5.92220546362268,44.75408063667132],[5.9801466158902254,44.78117807160656],[5.977781702799108,44.79098097178422],[5.94951924784745,44.80453012289717],[5.979181680039922,44.81858485233257],[6.004863991929379,44.82044164675532],[6.030210546238997,44.838096097754196],[6.056880845755912,44.81648809334095],[6.111944264637026,44.844104598030206],[6.128361780211359,44.86189793671716],[6.1707886083957675,44.85422409321522],[6.196382213093447,44.85897725265292],[6.25054409332542,44.85265497741959],[6.269405725021001,44.87047437006196],[6.300679811301804,44.87347754001874],[6.336319027358193,44.84836943493937],[6.354685212537601,44.85597093285778],[6.350781709377172,44.88120395797154],[6.358440638759468,44.89205674340702],[6.354621853701313,44.92359576979837],[6.3588400606704845,44.941284471463],[6.3289997583261135,44.94731911410858],[6.3285028218875325,44.969718924476524],[6.3148150406516885,44.98018487183722],[6.321848392012048,45.000080059582814],[6.300180534522452,45.00397824625707],[6.251755823777455,44.99669933009644],[6.203927022398643,45.012469165084845],[6.2200801563699395,45.06536793621533],[6.243017832342709,45.06906387836911],[6.229388123209472,45.108750055807405],[6.260566197557925,45.12684791386632]]]},"properties":{"code":"05","nom":"Hautes-Alpes"}},{"type":"Feature","geometry":{"type":"Polygon","coordinates":[[[6.88742990090296,44.36104783803612],[6.922569034715827,44.35073334653868],[6.92647211225925,44.334749781019966],[6.960525832743343,44.31085198397747],[6.955859859005885,44.2970594542236],[6.9934468208164935,44.280891427852495],[6.99712995413101,44.251997804252646],[7.008054894297459,44.236431060527],[7.038841660238861,44.22372981024312],[7.070224944864906,44.23297997575481],[7.112226619139014,44.21733524158766],[7.141050183667786,44.2010003780328],[7.1597495198014025,44.20620545858123],[7.2033866897276635,44.184792768493224],[7.218868901675846,44.1689469810721],[7.237041234869469,44.174339231954],[7.24856917472652,44.158515503110245],[7.280317813440188,44.141181126207165],[7.340417586180365,44.145649028908274],[7.358475305086881,44.11815061891558],[7.388931942608855,44.12479464638471],[7.4268012934594045,44.117564036132904],[7.429927081340899,44.127804524896916],[7.459974202378207,44.125692456404565],[7.505741191835109,44.143652395337554],[7.5567970945239376,44.14692262748108],[7.577148887227901,44.15289005329537],[7.614555274657836,44.14967082474187],[7.645064338759674,44.17790074590103],[7.68458536705161,44.17401845696774],[7.670852285754872,44.15374050304116],[7.667154197554274,44.13343096570642],[7.67452067122969,44.117978351966265],[7.715741685167259,44.082768394074186],[7.714078792245614,44.06542948835954],[7.700025563701426,44.04078903341254],[7.664986572845552,44.03066821354587],[7.670204633842334,43.998475578585406],[7.652699330334664,43.97484454446134],[7.610194650987026,43.95513695471592],[7.596854299346449,43.95652880599456],[7.572900090571807,43.9377923733289],[7.559929417388958,43.914446448952816],[7.559218845189717,43.897294632318086],[7.511282181839372,43.88226017750882],[7.495202515535623,43.862291505445505],[7.518300877134688,43.80329700642123],[7.530159376168468,43.78804906400435],[7.490212035782315,43.767197668733566],[7.475918505385493,43.750796761738144],[7.4597300454166495,43.76004177050826],[7.412274588246639,43.7343884782676],[7.413235194461564,43.72476923386886],[7.375064708715003,43.71753336634211],[7.360727399718111,43.72228177889476],[7.337596357798404,43.711716462798286],[7.326468236003214,43.69615480753041],[7.297211876953826,43.68614078433695],[7.285170356707785,43.694320925627316],[7.24382000023942,43.68938268481802],[7.225884891654834,43.66225535365977],[7.206455679516468,43.64563646874049],[7.194537177820155,43.657919305629925],[7.157853271963104,43.65385083741795],[7.139271239473155,43.6360982414893],[7.1230039862754415,43.58829721341579],[7.121751847241626,43.55949556145099],[7.101266887315347,43.57067799664823],[7.0675662048264405,43.561639844055605],[7.055944916816456,43.54796646787975],[7.014827677611477,43.550856545562084],[6.974303482945652,43.546078781561825],[6.952169379017137,43.53471699106892],[6.938368675282269,43.51639156043654],[6.954746280767227,43.50472407547113],[6.947072439425319,43.48436595161653],[6.933726236453417,43.480068010885034],[6.884230099335205,43.502535727819215],[6.89638230847014,43.5271599958737],[6.879542001080731,43.53535761950226],[6.907175687871982,43.572966433750736],[6.908012993627823,43.599079187946934],[6.8879265318112735,43.60741263064278],[6.838776771755721,43.613611496756825],[6.812859360304176,43.6305052559662],[6.798740654261999,43.62818033606127],[6.782299387537954,43.65415726922716],[6.7608013983957,43.66648795918856],[6.774352202435761,43.69341283496426],[6.766592784345339,43.720212010988675],[6.753535969205428,43.73816698047835],[6.719415853332108,43.7381403462073],[6.70139956454595,43.754068906503676],[6.682708528326925,43.757936848433445],[6.657423432162916,43.74871807004049],[6.636395800176684,43.788950567095455],[6.641524167665496,43.795472444882115],[6.70606421451232,43.80841245654836],[6.703701880641647,43.822825820470534],[6.667938865272228,43.83092697652154],[6.677914955878909,43.850959763474634],[6.698718605090542,43.85521098299028],[6.697323345466608,43.87365480225297],[6.748392415086803,43.87167747871268],[6.781621637708193,43.883549262987735],[6.804290312432095,43.910790628356104],[6.830709312232406,43.91836301148648],[6.876620003660876,43.89859537972932],[6.884610185550847,43.88912075689405],[6.941753698705185,43.89697361215048],[6.913088787529998,43.92796536503886],[6.884040903481558,43.93530101735706],[6.875468351966293,43.95281563358485],[6.849124623100394,43.95555833887359],[6.838726887709297,43.98970431437945],[6.795850869439254,44.00702405029123],[6.74580308295055,44.04269169406513],[6.7552927685949316,44.078606159081765],[6.736610415319581,44.10225823836325],[6.707586373017441,44.124473345545944],[6.705499890845224,44.144466155776314],[6.686536427072904,44.16925393086098],[6.718344217584288,44.21071074917548],[6.724182328511966,44.249467455280936],[6.759092155836728,44.26206489740905],[6.762927060646822,44.279037241415196],[6.7863504827742736,44.28849643698575],[6.796090992510113,44.3161057075123],[6.811873213958045,44.33221347515919],[6.839688603111202,44.34616952567193],[6.856147812069906,44.342952907783264],[6.88742990090296,44.36104783803612]]]},"properties":{"code":"06","nom":"Alpes-Maritimes"}},{"type":"Feature","geometry":{"type":"Polygon","coordinates":[[[4.739060856654237,43.92405947349057],[4.82173604983078,43.912827836405015],[4.853093547765335,43.91138205123056],[4.885234592866442,43.90014657326699],[4.902319279838385,43.88793164631778],[4.925857913600155,43.886492676966505],[4.966309299927298,43.87164726913833],[4.996088984833567,43.846062979958205],[5.029533445304739,43.82779291313872],[5.0496564330787725,43.788726353015356],[5.173314396868251,43.7388086180006],[5.187972296540632,43.73510332278256],[5.229990308924739,43.74767288112555],[5.255713544202415,43.74655792640453],[5.31850282672,43.73502143195822],[5.341018959038618,43.719703701701896],[5.439245661034277,43.68110432174805],[5.532691768278144,43.658982498850435],[5.571561902428718,43.66192326389572],[5.6069435191164425,43.65868590516478],[5.647750486437068,43.675796002747234],[5.6740823773888085,43.69354548263312],[5.7173496269448085,43.6935266901868],[5.73694977606664,43.71600369956981],[5.753650891000443,43.72462222505303],[5.782188925366387,43.70688803457204],[5.803458345470844,43.67967259461735],[5.799061112603831,43.66051789095841],[5.744798262971254,43.65677840759107],[5.7002276041895055,43.64171580606343],[5.681084297973491,43.61251583703795],[5.691599302975247,43.58442798717338],[5.655965226280003,43.57740113848914],[5.6692574361600405,43.56473259595678],[5.695815693323289,43.5621406925523],[5.722822019697228,43.54816058741321],[5.716142493328895,43.50429675245373],[5.698802592390258,43.48217012690398],[5.729497620866793,43.4649455181253],[5.750365813842735,43.43483686058608],[5.786515741534922,43.41454030725915],[5.749995488821414,43.40151212758493],[5.724430347442292,43.408873853719896],[5.682787396731936,43.39915686931637],[5.694566647112354,43.364397692972155],[5.705025402908448,43.35591845372619],[5.686454243837883,43.34018809721801],[5.6805714198425825,43.320567749059826],[5.691040375926617,43.31296284082202],[5.726600840963344,43.317355354807546],[5.749842102092498,43.289268158207484],[5.760928945485899,43.26733799967126],[5.738053338597997,43.26234879905431],[5.683909137465821,43.23605829449104],[5.671875005699277,43.179268786904935],[5.6525556384849125,43.187314568389844],[5.624165815055896,43.18698295242608],[5.600902180940571,43.16254533545738],[5.569123854119204,43.17529448351615],[5.531324017717664,43.21204241023737],[5.510066083294413,43.19768970206163],[5.454401745873978,43.21064244401662],[5.391051995321294,43.21212758682465],[5.363644360087066,43.20712491164297],[5.340870058926049,43.21464053757704],[5.348353034439003,43.22982142946681],[5.372523588800765,43.24507767770401],[5.366241273279859,43.269297926805216],[5.345688435376646,43.282363417695436],[5.364413487886784,43.312140196877614],[5.323859848409952,43.356938601132626],[5.296471721324536,43.35955741603999],[5.2562520205440935,43.33727449020553],[5.221336413370384,43.32835884872525],[5.17747685717399,43.333615576923606],[5.168325223906977,43.32794092993499],[5.037907932778403,43.32902848885288],[5.019042287817556,43.34294363712429],[5.0242941885301615,43.355561006629124],[4.975887748495165,43.40225192419132],[4.967705599857734,43.42610491918481],[4.931381887869524,43.43315714427828],[4.906351069342989,43.41974182683961],[4.864258578677964,43.40622019800946],[4.848994405645509,43.374446367565824],[4.874828065516188,43.36049493579003],[4.855048529182453,43.3326166544088],[4.833031594688433,43.32986964122808],[4.783363102701897,43.347193829339595],[4.717738680923241,43.3503073199876],[4.661783095147221,43.34641234548359],[4.585804835779633,43.36006877534866],[4.562800334318894,43.37213670596142],[4.557428450695051,43.38832049746897],[4.587701900856666,43.40071206710059],[4.582043368583085,43.43056112720855],[4.562101794245088,43.4432502407157],[4.51635241260241,43.45471611364518],[4.465265329292432,43.45715551018595],[4.402200576777784,43.4472639920423],[4.382042207083344,43.452273928749435],[4.230283393392478,43.46018543272639],[4.239683975737728,43.499174558069626],[4.295851866824911,43.51453493286982],[4.353650066858599,43.54739365400947],[4.409349673740097,43.5611278006361],[4.425539875574249,43.5852225597615],[4.450257392496214,43.58355447784505],[4.475231595661822,43.60829885495057],[4.439746618135546,43.61067366667502],[4.427040425527008,43.62067740923795],[4.4542439312837825,43.66662787515181],[4.475496620134662,43.67109343801706],[4.487236861293796,43.6992377666192],[4.5369411541005595,43.70751108523803],[4.58188049548336,43.696373117975405],[4.5930322483013235,43.687462402972955],[4.627660521184518,43.69054089775907],[4.613036230103559,43.71429404725378],[4.613635008064088,43.72981961114202],[4.62998556436456,43.76267064663956],[4.6512411791496495,43.782277934314685],[4.654752667357286,43.80231435958277],[4.6424160670333485,43.83143872315902],[4.666304849946619,43.84477593971714],[4.641909591242105,43.86747754714164],[4.693327338994554,43.88497348729056],[4.723369654284791,43.90595389117946],[4.739060856654237,43.92405947349057]],[[5.0144531785530875,43.55554571631939],[5.015464900192831,43.52972333434815],[4.998556097992353,43.498104175449996],[5.004639838062898,43.470137499203474],[5.037984666608327,43.47064067048238],[5.051880922172624,43.463556640011085],[5.070394766791551,43.40020699537995],[5.11071277779588,43.40412626112347],[5.137265038622504,43.40018551794629],[5.1602333561876454,43.4110063529329],[5.191264875484891,43.43489873898378],[5.226134113683475,43.45256621293005],[5.222559549448171,43.48346583330456],[5.202793615675099,43.49117758927305],[5.1453160268384055,43.45857039791435],[5.102687329637665,43.526042982433104],[5.064332478397007,43.52783256560428],[5.046441178306793,43.52214136817413],[5.0330412390865265,43.5450648209435],[5.0144531785530875,43.55554571631939]]]},"properties":{"code":"13","nom":"Bouches-du-Rh\u00f4ne"}},{"type":"Feature","geometry":{"type":"Polygon","coordinates":[[[4.800493926884063,45.298360661142944],[4.858798773300606,45.30895383074844],[4.879709663152382,45.2969314761542],[4.927837287858217,45.322467078582974],[4.960882968689533,45.329431946438525],[4.989191483458711,45.34404664083611],[5.00965209426827,45.34223102677266],[5.019860000114205,45.32012334781686],[5.054318727576239,45.319054679747346],[5.075414977696186,45.28182474686916],[5.138525456127068,45.29621886821675],[5.121425532367965,45.24833591809063],[5.176540876984406,45.2484020449113],[5.184576231954122,45.231193647083316],[5.165271150444932,45.1998716765054],[5.188573507748233,45.171268538792575],[5.187438130822191,45.12083055585071],[5.162894297608516,45.0984305870661],[5.148624024939402,45.07523359417633],[5.171188406008603,45.06901345142979],[5.1833365351237415,45.08488121016097],[5.226123302713108,45.07917959620953],[5.248350471901153,45.06093433768146],[5.300641951274725,45.06258684321087],[5.317097625615876,45.05144543143657],[5.3438842908647155,45.04990301119417],[5.388382939418146,45.03613916354605],[5.449788835244156,45.070783659173316],[5.4594242070232415,45.084354048653296],[5.482962641076428,45.083813985829416],[5.466222808609953,45.05369264423919],[5.480457675487145,45.013866206651436],[5.493108370230375,44.99650387405212],[5.477674326344703,44.96675249985711],[5.483647138020397,44.92229059824822],[5.475071217930305,44.86759688581832],[5.463794835880649,44.82597088831498],[5.484766003910795,44.82306199061912],[5.4641587549688655,44.79242749679306],[5.538609682625281,44.77435333052135],[5.582046117791262,44.777862736908396],[5.583886354820008,44.76534387074039],[5.627084872571889,44.75246442874924],[5.647101681531142,44.724098953876464],[5.708698705355806,44.720924547440156],[5.7387858126735685,44.712419126045255],[5.757110126926433,44.6960374105235],[5.801469996094522,44.706778512869995],[5.82711625324567,44.70028877822114],[5.825802514085463,44.68569233800322],[5.799407769469486,44.67394966436931],[5.790619766631355,44.65329030204328],[5.753939211901072,44.662713661324155],[5.726039426074854,44.63939834273572],[5.641715054881292,44.65107468886509],[5.643926214041127,44.60972161106435],[5.617737322579476,44.583133580603594],[5.5972487980667855,44.543273727979226],[5.627373773874302,44.53458025973445],[5.664504139914002,44.501894032401594],[5.629785093116038,44.5011871029685],[5.6163088106464185,44.47271206540212],[5.603651238319425,44.465544996850255],[5.562404689872195,44.47485185176209],[5.516510011697751,44.49138247772147],[5.4798758917737445,44.49123966897652],[5.458727518186473,44.46614393059478],[5.464433745418449,44.44788666870274],[5.498303440849121,44.43732497621575],[5.4764897049095795,44.41972379409436],[5.447194165800079,44.431852481873705],[5.418530667075709,44.424947370319],[5.443026623183156,44.391237330733084],[5.434953500862137,44.36911743294876],[5.46065693964672,44.36832054562284],[5.46941457400079,44.35149029453098],[5.4930715607447445,44.33717752081172],[5.521782790630088,44.34931163553876],[5.5373670436986435,44.333525718131106],[5.617135908418277,44.332475894185805],[5.608077262744189,44.30850908328983],[5.637756422122977,44.29968616697366],[5.631970064900461,44.284721309902835],[5.647509019416229,44.27247769824454],[5.676206589256276,44.27551099308782],[5.672996044869041,44.23984311301397],[5.681311859737585,44.23289466958045],[5.676037325543462,44.19143313185896],[5.651592585237082,44.18957707724826],[5.646965152793732,44.166291647187435],[5.68271535182101,44.16321640945639],[5.67860502821166,44.14608869344783],[5.6316731817286305,44.15136802990124],[5.63959354437225,44.16758605191366],[5.609572963808623,44.18817112634557],[5.576187167563138,44.18804165094906],[5.564374392120529,44.17090170649433],[5.582976621063447,44.15762325973775],[5.551327343869811,44.14979115926589],[5.540435810430644,44.13221365213216],[5.498787806458752,44.11571934778835],[5.45471645974309,44.119227904662864],[5.43571830913588,44.1516641531859],[5.383240887752097,44.15528473021913],[5.384523055943825,44.201046720663136],[5.354042708088259,44.21342924717531],[5.3368331508273,44.20353145731521],[5.292247629624085,44.214467072564894],[5.2565087145716225,44.23005632855739],[5.23814970804007,44.213233332998946],[5.174965607033191,44.22080662233339],[5.154903556803357,44.230944996200954],[5.161547590528067,44.24559067110522],[5.1497271329806695,44.28208386834487],[5.167205149288734,44.29205090874127],[5.172696360911815,44.309393695074476],[5.1045087340965685,44.27953745155323],[5.076512049103177,44.2840860159789],[5.060564583015947,44.30813976056077],[5.005535817021755,44.286754820483196],[4.981451791724815,44.2848325971684],[4.932910424012261,44.2621518073366],[4.879050668886603,44.26148357791232],[4.826652705578103,44.22832506640777],[4.814096088903183,44.23231467832123],[4.812665863343398,44.257719064767414],[4.8031008029072115,44.27998919217419],[4.804563291806201,44.303896893827336],[4.762251228111598,44.32538168266028],[4.720123840256769,44.326714895236336],[4.679025302617316,44.32048933622703],[4.6506150134375535,44.329805791511276],[4.648946169255066,44.372462486293166],[4.664373400022996,44.398944273043945],[4.667379937465383,44.43066429434984],[4.69865229412497,44.45230946012676],[4.6989568502390995,44.481694190593686],[4.689973321952771,44.49125058500801],[4.692050189601407,44.5152420465306],[4.707018905489797,44.53084113511007],[4.692361920905272,44.55589194997334],[4.710266499941698,44.58154911470836],[4.741168931840421,44.58877434873562],[4.74040453633284,44.60239249321297],[4.77408913696615,44.644269843250804],[4.7811100231594805,44.682833634690404],[4.762850574483207,44.72009203958483],[4.760941584679994,44.771713549802],[4.795665859771827,44.793769117314746],[4.821656483202532,44.83867049616437],[4.841340887618573,44.842596306238924],[4.85945820884153,44.87175235284045],[4.8579011507481304,44.903155110736876],[4.8855710639544006,44.93465153198947],[4.875684162327823,44.95520873214619],[4.860170175358192,44.96586245571145],[4.851264766161909,44.99467770210391],[4.837672652853049,45.00479181394786],[4.840341325313034,45.03578322392562],[4.860746068970967,45.055429204446796],[4.831651038103518,45.07026753675957],[4.827354281438577,45.10214857279052],[4.804492252463412,45.12194771680664],[4.804461066670614,45.133197210828584],[4.829100372157167,45.15669010756043],[4.813699779096304,45.16341716248438],[4.804809814114698,45.194030298693185],[4.812569706062625,45.204307182925724],[4.802585860487608,45.22693117215798],[4.809597016988471,45.26036757990201],[4.80945700146176,45.28984878023442],[4.800493926884063,45.298360661142944]],[[4.892909784975503,44.36481842003465],[4.871546699824252,44.349624687939915],[4.89532799567956,44.33806148358807],[4.881629025271996,44.32487165610533],[4.8894629809408325,44.30401919301177],[4.922149021948395,44.30878294851454],[4.978583367650993,44.297463038388315],[5.023291388686099,44.34594820774989],[5.0270075535733945,44.362835342005326],[5.052014293962954,44.364659059368094],[5.048760348502809,44.381234267021824],[5.015759498726315,44.39276614596861],[5.013305911983339,44.405345557740354],[4.988609946346962,44.42320030980228],[4.963297700567191,44.42193444899826],[4.918515009368784,44.40778504385655],[4.906627552610216,44.37409911682911],[4.892909784975503,44.36481842003465]]]},"properties":{"code":"26","nom":"Dr\u00f4me"}},{"type":"Feature","geometry":{"type":"Polygon","coordinates":[[[5.623748035268078,45.61326832676418],[5.623027366443004,45.60428439343032],[5.675167496407929,45.552447358553074],[5.671709636036369,45.53657315102359],[5.690155380407807,45.52805094541753],[5.71223316468065,45.505057950484435],[5.719054346580329,45.48422397831694],[5.73637233564262,45.47254042424704],[5.731970000928497,45.45281667211181],[5.740104011811925,45.43734623286918],[5.782081150720109,45.44065533936711],[5.820296539907869,45.421184335243574],[5.854272829475331,45.41656686156957],[5.8797384015593375,45.406796712103805],[5.891004502554541,45.39221582440636],[5.909619159426924,45.3904002917266],[5.901623412018766,45.41803604702067],[5.9205757281996165,45.446107810736585],[5.92551858695235,45.46607303539041],[5.915370443544101,45.47644734987887],[5.966169653050879,45.49230872138139],[5.991189721035916,45.47515424577151],[6.010911085643492,45.4732028948577],[6.008517618674313,45.45384805163827],[6.049753851710852,45.43791952965108],[6.090976636521003,45.444017712369956],[6.097443053810049,45.43210624582376],[6.13250773126349,45.43338472055341],[6.144660957447894,45.41359714609229],[6.177450938299202,45.39316148783122],[6.194758976954228,45.35224190534863],[6.1844503207792245,45.31794850760671],[6.160203556675586,45.31249020082116],[6.131944929909637,45.288287215984546],[6.140875621531491,45.261921460435985],[6.125696481423486,45.244270268835855],[6.159477588169717,45.202453059383735],[6.161919245441667,45.188407230805964],[6.143789597164076,45.15455037021851],[6.16131722681015,45.151009138334466],[6.189207693158913,45.163732283277994],[6.227710427654607,45.142718202360385],[6.248933790379999,45.14966269770901],[6.265373167502132,45.139612058658614],[6.260566197557925,45.12684791386632],[6.229388123209472,45.108750055807405],[6.243017832342709,45.06906387836911],[6.2200801563699395,45.06536793621533],[6.203927022398643,45.012469165084845],[6.251755823777455,44.99669933009644],[6.300180534522452,45.00397824625707],[6.321848392012048,45.000080059582814],[6.3148150406516885,44.98018487183722],[6.3285028218875325,44.969718924476524],[6.3289997583261135,44.94731911410858],[6.3588400606704845,44.941284471463],[6.354621853701313,44.92359576979837],[6.358440638759468,44.89205674340702],[6.350781709377172,44.88120395797154],[6.354685212537601,44.85597093285778],[6.336319027358193,44.84836943493937],[6.300679811301804,44.87347754001874],[6.269405725021001,44.87047437006196],[6.25054409332542,44.85265497741959],[6.196382213093447,44.85897725265292],[6.1707886083957675,44.85422409321522],[6.128361780211359,44.86189793671716],[6.111944264637026,44.844104598030206],[6.056880845755912,44.81648809334095],[6.030210546238997,44.838096097754196],[6.004863991929379,44.82044164675532],[5.979181680039922,44.81858485233257],[5.94951924784745,44.80453012289717],[5.977781702799108,44.79098097178422],[5.9801466158902254,44.78117807160656],[5.92220546362268,44.75408063667132],[5.900145988864039,44.75831810886521],[5.888833543818295,44.74880281266777],[5.846789359515513,44.75162114202083],[5.82777670542201,44.7400904212036],[5.801469996094522,44.706778512869995],[5.757110126926433,44.6960374105235],[5.7387858126735685,44.712419126045255],[5.708698705355806,44.720924547440156],[5.647101681531142,44.724098953876464],[5.627084872571889,44.75246442874924],[5.583886354820008,44.76534387074039],[5.582046117791262,44.777862736908396],[5.538609682625281,44.77435333052135],[5.4641587549688655,44.79242749679306],[5.484766003910795,44.82306199061912],[5.463794835880649,44.82597088831498],[5.475071217930305,44.86759688581832],[5.483647138020397,44.92229059824822],[5.477674326344703,44.96675249985711],[5.493108370230375,44.99650387405212],[5.480457675487145,45.013866206651436],[5.466222808609953,45.05369264423919],[5.482962641076428,45.083813985829416],[5.4594242070232415,45.084354048653296],[5.449788835244156,45.070783659173316],[5.388382939418146,45.03613916354605],[5.3438842908647155,45.04990301119417],[5.317097625615876,45.05144543143657],[5.300641951274725,45.06258684321087],[5.248350471901153,45.06093433768146],[5.226123302713108,45.07917959620953],[5.1833365351237415,45.08488121016097],[5.171188406008603,45.06901345142979],[5.148624024939402,45.07523359417633],[5.162894297608516,45.0984305870661],[5.187438130822191,45.12083055585071],[5.188573507748233,45.171268538792575],[5.165271150444932,45.1998716765054],[5.184576231954122,45.231193647083316],[5.176540876984406,45.2484020449113],[5.121425532367965,45.24833591809063],[5.138525456127068,45.29621886821675],[5.075414977696186,45.28182474686916],[5.054318727576239,45.319054679747346],[5.019860000114205,45.32012334781686],[5.00965209426827,45.34223102677266],[4.989191483458711,45.34404664083611],[4.960882968689533,45.329431946438525],[4.927837287858217,45.322467078582974],[4.879709663152382,45.2969314761542],[4.858798773300606,45.30895383074844],[4.800493926884063,45.298360661142944],[4.769929030711337,45.316015123688956],[4.761388480871705,45.34063001021366],[4.772556757363274,45.35486449672088],[4.755996992712002,45.36567226076598],[4.755804203494391,45.39641527650575],[4.744760477737733,45.42132931211987],[4.758664794548146,45.43109160083594],[4.756935570818616,45.45570734978024],[4.775917949204341,45.45421052340817],[4.782279555986659,45.47220452723034],[4.8412638959614664,45.50060628572331],[4.868481734036511,45.5234402120416],[4.864438371893341,45.5373424891419],[4.840117013694024,45.543291913290595],[4.808696981728118,45.5723005698916],[4.828114865183135,45.58789311790868],[4.85277784466551,45.57887851405256],[4.864457684448963,45.59360146128447],[4.901457719834113,45.606267804658444],[4.927527809638902,45.605706962994894],[4.9719731415095545,45.61268302966118],[4.997963145407583,45.60341491364353],[5.0047455923475,45.62311113752578],[5.038083762231331,45.61507172104689],[5.035148740524161,45.63720294798379],[5.058062092364437,45.65324362294234],[5.059543480830934,45.66509793238911],[5.1081318769103605,45.68802493937274],[5.131061214476138,45.7077086126494],[5.159431081299061,45.7088530167123],[5.126011929215237,45.73790916787724],[5.094526879742294,45.739453359509234],[5.093091174921406,45.766089791057205],[5.068368951685849,45.765473881827624],[5.059330594890989,45.79197852353507],[5.089312645190639,45.784275022180616],[5.101067478338776,45.81337808264365],[5.1603687442585455,45.80231368825673],[5.176892976082814,45.7934833284559],[5.191532760208242,45.771688000938774],[5.221074288749879,45.76845271626348],[5.266894883868229,45.78936901099017],[5.288915017040864,45.81112188995001],[5.302019342914551,45.84764710800802],[5.329298728282268,45.86357404303832],[5.351020842949957,45.883709517437694],[5.413134793996487,45.85221987973304],[5.434944676804955,45.831093776494285],[5.422469140800665,45.80730767616671],[5.457406410775327,45.78099315590627],[5.482525465260449,45.754586398783026],[5.516232131684801,45.73225264077732],[5.52567323556446,45.71672537840989],[5.5455415978088505,45.71359345746488],[5.5757522584808825,45.69178828956468],[5.552743866622332,45.67988793690172],[5.586411372003499,45.66707375970352],[5.602655500360425,45.651527036877965],[5.623748035268078,45.61326832676418]]]},"properties":{"code":"38","nom":"Is\u00e8re"}},{"type":"Feature","geometry":{"type":"Polygon","coordinates":[[[6.802516663522652,45.77837197402193],[6.808418511070923,45.72515343860933],[6.847748586989986,45.68937749599125],[6.906506784191486,45.67456031820136],[6.902142336705646,45.663739451343055],[6.934608837460737,45.64709230917702],[6.966679928899032,45.65406247996058],[7.000690534148291,45.63990159437462],[6.98785713700158,45.62484030507284],[6.977853982998437,45.58988711838748],[6.995382953276822,45.57564160818661],[6.9915063165642675,45.531275223900984],[7.005311787943923,45.51709673862955],[7.000331708478394,45.504417196582274],[7.04452030151899,45.497242723763186],[7.045847872850837,45.478350392863504],[7.0997891354009095,45.46943936219543],[7.113516455211971,45.43419468733109],[7.152242832761182,45.42319920873864],[7.1842747748936695,45.407480631519924],[7.165149366142358,45.383396585908265],[7.161662218042757,45.36245350123881],[7.137734008933981,45.35080736839848],[7.134719719291083,45.33124412917526],[7.113617028522963,45.32868608867201],[7.121796569398171,45.296222432254126],[7.136428084679232,45.28079531076303],[7.137753498643515,45.25686099638962],[7.106506545205386,45.239259844510855],[7.067342157688226,45.21008321740584],[7.051179482821824,45.225331224056454],[7.019992318063418,45.21587387777123],[6.965752237821794,45.20795099681965],[6.954190330678925,45.17961083467822],[6.930266678221192,45.17096314110703],[6.895349577041668,45.16846478638608],[6.884108906250159,45.15674060434921],[6.89437780212641,45.13736971507668],[6.847887829330167,45.127201835901765],[6.812274904701698,45.14835683817089],[6.767947891773147,45.15974332272096],[6.738956139264719,45.13683144319859],[6.711286195179388,45.14475992733128],[6.680067352474279,45.14012497136189],[6.672462233861758,45.124412299122746],[6.6299873381374725,45.1093269281999],[6.615550094957373,45.12147775227429],[6.57653069592537,45.12309720037721],[6.55601396596344,45.104195104315984],[6.529708447474563,45.09856919735164],[6.510979894458294,45.10875068557236],[6.480384256020366,45.09079271505677],[6.486234598441578,45.05607309559144],[6.451799595532319,45.05172052616644],[6.438596097282185,45.06258355349038],[6.393914586674507,45.06181851097421],[6.364877554955543,45.07017079687575],[6.373529600716985,45.08414824428705],[6.362935515883446,45.10449356656247],[6.3312977067397425,45.11812379084807],[6.299216785815758,45.10855211143577],[6.260566197557925,45.12684791386632],[6.265373167502132,45.139612058658614],[6.248933790379999,45.14966269770901],[6.227710427654607,45.142718202360385],[6.189207693158913,45.163732283277994],[6.16131722681015,45.151009138334466],[6.143789597164076,45.15455037021851],[6.161919245441667,45.188407230805964],[6.159477588169717,45.202453059383735],[6.125696481423486,45.244270268835855],[6.140875621531491,45.261921460435985],[6.131944929909637,45.288287215984546],[6.160203556675586,45.31249020082116],[6.1844503207792245,45.31794850760671],[6.194758976954228,45.35224190534863],[6.177450938299202,45.39316148783122],[6.144660957447894,45.41359714609229],[6.13250773126349,45.43338472055341],[6.097443053810049,45.43210624582376],[6.090976636521003,45.444017712369956],[6.049753851710852,45.43791952965108],[6.008517618674313,45.45384805163827],[6.010911085643492,45.4732028948577],[5.991189721035916,45.47515424577151],[5.966169653050879,45.49230872138139],[5.915370443544101,45.47644734987887],[5.92551858695235,45.46607303539041],[5.9205757281996165,45.446107810736585],[5.901623412018766,45.41803604702067],[5.909619159426924,45.3904002917266],[5.891004502554541,45.39221582440636],[5.8797384015593375,45.406796712103805],[5.854272829475331,45.41656686156957],[5.820296539907869,45.421184335243574],[5.782081150720109,45.44065533936711],[5.740104011811925,45.43734623286918],[5.731970000928497,45.45281667211181],[5.73637233564262,45.47254042424704],[5.719054346580329,45.48422397831694],[5.71223316468065,45.505057950484435],[5.690155380407807,45.52805094541753],[5.671709636036369,45.53657315102359],[5.675167496407929,45.552447358553074],[5.623027366443004,45.60428439343032],[5.623748035268078,45.61326832676418],[5.659528303353562,45.638682809874865],[5.689187102194641,45.64850161239945],[5.687058475150925,45.66816731077608],[5.708336503736496,45.683064766572876],[5.704119379498135,45.710926329459184],[5.756676853365063,45.70873356110276],[5.783495254205752,45.74431423922736],[5.77937453777779,45.76217553185385],[5.786777683247082,45.80940611504179],[5.80366973107069,45.85558153164841],[5.8285402770414905,45.909296035615355],[5.831226413621035,45.93845957829322],[5.862101395990038,45.932402294861824],[5.869091534260767,45.886864468450106],[5.878940328529421,45.8597615070083],[5.873592999113487,45.842776979480114],[5.913222470309635,45.80414050655359],[5.962785346309549,45.81273546653543],[5.980956213671225,45.795577042949866],[5.973931864683397,45.77494633416943],[6.010784848574594,45.75008827465721],[6.042951856542115,45.73909560438109],[6.0527168183887685,45.748591125666145],[6.082884373383685,45.73997499672517],[6.127911958348486,45.75170259298121],[6.142900945398585,45.76151435802781],[6.178383991605425,45.74715464474954],[6.19554810502904,45.73233087617837],[6.189464060829947,45.70250157434257],[6.231653819459301,45.7027499445204],[6.239679907775353,45.685404763162595],[6.279888236747214,45.68431276833579],[6.3048306731057115,45.69329913872337],[6.328722589989684,45.693028041590736],[6.383851558657904,45.77805529558221],[6.424911859192457,45.80352244063008],[6.444801213660523,45.84550566374783],[6.470572561574056,45.8846919017355],[6.493715031750103,45.88999988497013],[6.514771172368506,45.90441808486001],[6.558675044419775,45.8930927712201],[6.572913173369461,45.87755381109516],[6.56843309482083,45.86317365422438],[6.539525002903797,45.86285738025596],[6.552237633503553,45.82687986970037],[6.577214777368843,45.81657207430024],[6.601732972495579,45.795419923318136],[6.661011726554582,45.799100632035966],[6.688825113135432,45.77134869370408],[6.686145373112389,45.755327050482464],[6.6987046073815275,45.743259542342656],[6.691927026555463,45.72680454299077],[6.711951361097394,45.72291924893507],[6.74001337439419,45.74561033697647],[6.755509936266976,45.76635254534395],[6.802516663522652,45.77837197402193]]]},"properties":{"code":"73","nom":"Savoie"}},{"type":"Feature","geometry":{"type":"Polygon","coordinates":[[[6.802516663522652,45.77837197402193],[6.755509936266976,45.76635254534395],[6.74001337439419,45.74561033697647],[6.711951361097394,45.72291924893507],[6.691927026555463,45.72680454299077],[6.6987046073815275,45.743259542342656],[6.686145373112389,45.755327050482464],[6.688825113135432,45.77134869370408],[6.661011726554582,45.799100632035966],[6.601732972495579,45.795419923318136],[6.577214777368843,45.81657207430024],[6.552237633503553,45.82687986970037],[6.539525002903797,45.86285738025596],[6.56843309482083,45.86317365422438],[6.572913173369461,45.87755381109516],[6.558675044419775,45.8930927712201],[6.514771172368506,45.90441808486001],[6.493715031750103,45.88999988497013],[6.470572561574056,45.8846919017355],[6.444801213660523,45.84550566374783],[6.424911859192457,45.80352244063008],[6.383851558657904,45.77805529558221],[6.328722589989684,45.693028041590736],[6.3048306731057115,45.69329913872337],[6.279888236747214,45.68431276833579],[6.239679907775353,45.685404763162595],[6.231653819459301,45.7027499445204],[6.189464060829947,45.70250157434257],[6.19554810502904,45.73233087617837],[6.178383991605425,45.74715464474954],[6.142900945398585,45.76151435802781],[6.127911958348486,45.75170259298121],[6.082884373383685,45.73997499672517],[6.0527168183887685,45.748591125666145],[6.042951856542115,45.73909560438109],[6.010784848574594,45.75008827465721],[5.973931864683397,45.77494633416943],[5.980956213671225,45.795577042949866],[5.962785346309549,45.81273546653543],[5.913222470309635,45.80414050655359],[5.873592999113487,45.842776979480114],[5.878940328529421,45.8597615070083],[5.869091534260767,45.886864468450106],[5.862101395990038,45.932402294861824],[5.831226413621035,45.93845957829322],[5.834025839734275,45.972026538215985],[5.809643351753076,45.98979960381866],[5.812398928975968,46.02398062317354],[5.806996561909532,46.043829800018194],[5.8114184967701625,46.07842009259869],[5.832300912634432,46.10599585856304],[5.855667958392184,46.08676688670444],[5.883180329915085,46.08491752032048],[5.8924200086063525,46.118482302607056],[5.922266804802187,46.13147760862653],[5.956063159932633,46.13208943594269],[5.985318105052286,46.14330892189844],[6.045529778815728,46.139907519306156],[6.052041801049772,46.151402672290395],[6.092465663697645,46.15175991441013],[6.126624627901115,46.14046081078615],[6.175072377878081,46.15814989960168],[6.185975362523726,46.178176058241256],[6.235977428314406,46.20654881404464],[6.277369983407964,46.21561016581553],[6.310110099309942,46.24370059763195],[6.307272725570715,46.255436556730494],[6.267633620497312,46.247839839653885],[6.237797813525851,46.2773342585167],[6.246790968617458,46.30206938671207],[6.277022020836744,46.34891543898281],[6.303735764913311,46.36625941824085],[6.3446765942166445,46.370013560347886],[6.356956142429217,46.35266345709143],[6.3900361566872315,46.34016563406088],[6.411592280204707,46.35839568319258],[6.468499886776638,46.37242442527263],[6.482856165126304,46.39192443764463],[6.513071711513262,46.40478840307281],[6.545175304790926,46.394727359364545],[6.588092394777118,46.402317999643515],[6.635060415534961,46.405770576746406],[6.722868985320351,46.40755389780494],[6.789802754759155,46.39291791721357],[6.806217638297463,46.38037206259825],[6.770617080369467,46.35489783286797],[6.784482072903341,46.33270290819052],[6.820345178565179,46.31437668901683],[6.829983705845801,46.300043050711345],[6.864509851829647,46.282990769883504],[6.853894399067287,46.253761843433864],[6.839925738114553,46.248239017516546],[6.80366083421475,46.20434524954354],[6.81194009872822,46.18337761562343],[6.792040848027208,46.16290288539592],[6.796535034034799,46.13861879772074],[6.814732162900611,46.129696461365214],[6.898381393099358,46.122562070394075],[6.883845122673671,46.09579681990079],[6.8914542235903005,46.08449157208838],[6.872633110865425,46.05204817296112],[6.888329552883717,46.043116914092494],[6.924513948824021,46.065193804450395],[6.951511564566567,46.04995609942393],[6.9846850080843375,46.00654353554806],[7.005830810542592,46.00054972582734],[7.022720712338816,45.98029457159881],[7.017978490745711,45.96034701964026],[7.03720423287911,45.95472134951176],[7.043890107046439,45.92361818207322],[7.020983385199974,45.916194082670756],[7.0031519124087716,45.89782921384603],[7.00536167353659,45.88435235390808],[6.991719912014907,45.86819987209143],[6.951037365261489,45.85954131063136],[6.939604939153821,45.8467321064224],[6.895100845805131,45.84259632779018],[6.8736072885923845,45.84549967424515],[6.818885778420616,45.83620281158613],[6.803991136344079,45.815853187486255],[6.812719976307191,45.808021694582315],[6.802516663522652,45.77837197402193]]]},"properties":{"code":"74","nom":"Haute-Savoie"}},{"type":"Feature","geometry":{"type":"MultiPolygon","coordinates":[[[[6.4348048599912655,43.01553967859008],[6.455204193482509,43.02681414026909],[6.470219113787291,43.04517281781743],[6.489595213255647,43.04264656574441],[6.4698423857502005,43.01636834554753],[6.4348048599912655,43.01553967859008]]],[[[6.397097505711295,42.992801581371666],[6.382674546492372,43.0122950539356],[6.420662735426035,43.01371293579736],[6.397097505711295,42.992801581371666]]],[[[6.244070723660419,43.02003990146341],[6.250456907741955,42.999405471017184],[6.2086721858280045,42.98337897719049],[6.164093203064464,43.001486581994094],[6.178205964056932,43.008378995767266],[6.201680276206104,43.000832977469685],[6.244070723660419,43.02003990146341]]],[[[5.753650891000443,43.72462222505303],[5.757332977582704,43.72940911375532],[5.781343238677484,43.75565738832376],[5.8278752703448715,43.748065843473604],[5.849146371217722,43.72025525749223],[5.901533390582641,43.73289106389851],[5.903517180339531,43.751432620885154],[5.937716232260396,43.75023611335413],[5.937998300025333,43.73057120981495],[5.9564454360651595,43.719401124766904],[5.98543773624429,43.71396312876724],[5.987939406703312,43.69505659267458],[6.005007067617743,43.68778786403108],[6.021735021476141,43.66827944245308],[6.039033980651841,43.67892716093395],[6.036131813943926,43.69416334085516],[6.077305911948532,43.70817081210753],[6.1036091865345306,43.73722227951302],[6.140796857826169,43.73769553098114],[6.182886008281907,43.76217559136371],[6.188517764066482,43.776267312514086],[6.212407106246491,43.79839605677458],[6.254215459954332,43.800433718328094],[6.262893011516566,43.781882078680276],[6.3267516313932,43.74662594026461],[6.356960735074889,43.73636766488724],[6.3835404106739695,43.73442775895217],[6.413483066219063,43.760360418472196],[6.4144280526034985,43.79159445843418],[6.4388083985564,43.797745193516654],[6.482076253327453,43.791074426311035],[6.52476198332243,43.80636597788804],[6.558904687579015,43.7841955441722],[6.585317018818273,43.80050767551297],[6.619973007874097,43.80550530861199],[6.636395800176684,43.788950567095455],[6.657423432162916,43.74871807004049],[6.682708528326925,43.757936848433445],[6.70139956454595,43.754068906503676],[6.719415853332108,43.7381403462073],[6.753535969205428,43.73816698047835],[6.766592784345339,43.720212010988675],[6.774352202435761,43.69341283496426],[6.7608013983957,43.66648795918856],[6.782299387537954,43.65415726922716],[6.798740654261999,43.62818033606127],[6.812859360304176,43.6305052559662],[6.838776771755721,43.613611496756825],[6.8879265318112735,43.60741263064278],[6.908012993627823,43.599079187946934],[6.907175687871982,43.572966433750736],[6.879542001080731,43.53535761950226],[6.89638230847014,43.5271599958737],[6.884230099335205,43.502535727819215],[6.933726236453417,43.480068010885034],[6.922885490828145,43.45174387541975],[6.905141154857869,43.44535017666573],[6.891803829527237,43.428580913728375],[6.857004426913538,43.430474860535256],[6.858844544234777,43.414799720326116],[6.826767053167243,43.41737073152947],[6.782764730332782,43.409442320887486],[6.766270052682748,43.42375280812916],[6.733704630154437,43.40559793735444],[6.732003206721381,43.38946313855496],[6.714335229285594,43.36790695222178],[6.7099565741085065,43.344596635575606],[6.6800297271705,43.340297041676884],[6.665952517510404,43.3182163655059],[6.583869079366629,43.27730467434808],[6.58599194489557,43.264474487305584],[6.6206975135955615,43.26419875103567],[6.639850874222042,43.27423471176637],[6.662119995811744,43.26490893551231],[6.677311623765608,43.278791964313584],[6.697137390126857,43.26639912327035],[6.690285120903589,43.25444947454634],[6.663579906038083,43.23804248633585],[6.6697773834987,43.20593681234112],[6.6424608658713495,43.185044777871894],[6.620225523392656,43.16070781744534],[6.591926740934735,43.18547932186572],[6.556403062532188,43.188079368186806],[6.495595304956187,43.15114513174647],[6.459406427232955,43.155878063276724],[6.4051625531535405,43.14899847503375],[6.368717778683196,43.13697275788714],[6.359759637416901,43.119904470727896],[6.365822239355368,43.08894493070752],[6.332512727498749,43.0910972881653],[6.316672182510005,43.106169850809124],[6.274938809272962,43.12074293872334],[6.24125248602693,43.11390300424902],[6.20808289628789,43.11644424038581],[6.1802726418863445,43.10699799522913],[6.1604467571254595,43.08929067476381],[6.15001613157217,43.061260557512185],[6.157072005051721,43.0283622233928],[6.116717634954243,43.03924175451086],[6.131609970477635,43.04800821003079],[6.125902358634685,43.07753538311637],[6.076465121556624,43.08694321993878],[6.031440047836645,43.0774733246304],[6.0234687473310835,43.09480782262938],[6.006259832558937,43.103984285718425],[5.940943551094233,43.10775854379546],[5.9206305576319345,43.12390905489088],[5.899891552467621,43.11317366571534],[5.916526116114346,43.08566056570662],[5.871977255950896,43.06810192056182],[5.8574626666009255,43.0466186792423],[5.828809918694244,43.04936457422897],[5.804564531287972,43.078284936751075],[5.813898362790477,43.107129005014066],[5.773153880321081,43.117608445363594],[5.781006228280267,43.13093301699203],[5.725850946491633,43.13652712230804],[5.719019910025584,43.14727450998757],[5.694880043308294,43.14358778681909],[5.671875005699277,43.179268786904935],[5.683909137465821,43.23605829449104],[5.738053338597997,43.26234879905431],[5.760928945485899,43.26733799967126],[5.749842102092498,43.289268158207484],[5.726600840963344,43.317355354807546],[5.691040375926617,43.31296284082202],[5.6805714198425825,43.320567749059826],[5.686454243837883,43.34018809721801],[5.705025402908448,43.35591845372619],[5.694566647112354,43.364397692972155],[5.682787396731936,43.39915686931637],[5.724430347442292,43.408873853719896],[5.749995488821414,43.40151212758493],[5.786515741534922,43.41454030725915],[5.750365813842735,43.43483686058608],[5.729497620866793,43.4649455181253],[5.698802592390258,43.48217012690398],[5.716142493328895,43.50429675245373],[5.722822019697228,43.54816058741321],[5.695815693323289,43.5621406925523],[5.6692574361600405,43.56473259595678],[5.655965226280003,43.57740113848914],[5.691599302975247,43.58442798717338],[5.681084297973491,43.61251583703795],[5.7002276041895055,43.64171580606343],[5.744798262971254,43.65677840759107],[5.799061112603831,43.66051789095841],[5.803458345470844,43.67967259461735],[5.782188925366387,43.70688803457204],[5.753650891000443,43.72462222505303]]]]},"properties":{"code":"83","nom":"Var"}},{"type":"Feature","geometry":{"type":"MultiPolygon","coordinates":[[[[4.892909784975503,44.36481842003465],[4.906627552610216,44.37409911682911],[4.918515009368784,44.40778504385655],[4.963297700567191,44.42193444899826],[4.988609946346962,44.42320030980228],[5.013305911983339,44.405345557740354],[5.015759498726315,44.39276614596861],[5.048760348502809,44.381234267021824],[5.052014293962954,44.364659059368094],[5.0270075535733945,44.362835342005326],[5.023291388686099,44.34594820774989],[4.978583367650993,44.297463038388315],[4.922149021948395,44.30878294851454],[4.8894629809408325,44.30401919301177],[4.881629025271996,44.32487165610533],[4.89532799567956,44.33806148358807],[4.871546699824252,44.349624687939915],[4.892909784975503,44.36481842003465]]],[[[4.649223666100485,44.270359865010946],[4.653469115901898,44.302095538489496],[4.6506150134375535,44.329805791511276],[4.679025302617316,44.32048933622703],[4.720123840256769,44.326714895236336],[4.762251228111598,44.32538168266028],[4.804563291806201,44.303896893827336],[4.8031008029072115,44.27998919217419],[4.812665863343398,44.257719064767414],[4.814096088903183,44.23231467832123],[4.826652705578103,44.22832506640777],[4.879050668886603,44.26148357791232],[4.932910424012261,44.2621518073366],[4.981451791724815,44.2848325971684],[5.005535817021755,44.286754820483196],[5.060564583015947,44.30813976056077],[5.076512049103177,44.2840860159789],[5.1045087340965685,44.27953745155323],[5.172696360911815,44.309393695074476],[5.167205149288734,44.29205090874127],[5.1497271329806695,44.28208386834487],[5.161547590528067,44.24559067110522],[5.154903556803357,44.230944996200954],[5.174965607033191,44.22080662233339],[5.23814970804007,44.213233332998946],[5.2565087145716225,44.23005632855739],[5.292247629624085,44.214467072564894],[5.3368331508273,44.20353145731521],[5.354042708088259,44.21342924717531],[5.384523055943825,44.201046720663136],[5.383240887752097,44.15528473021913],[5.43571830913588,44.1516641531859],[5.45471645974309,44.119227904662864],[5.498787806458752,44.11571934778835],[5.5026367853279545,44.06343920865494],[5.544598165016952,44.06989191567907],[5.543633878090188,44.02596177811475],[5.518062394104204,43.99011201336662],[5.508647939314863,43.959839793825395],[5.51208954255573,43.94600228564646],[5.544991957929805,43.93905484015686],[5.558844627129812,43.942576073587574],[5.579927197959687,43.925980406162694],[5.6064371876892,43.91613043943877],[5.573186434978607,43.86492031403171],[5.549174903324726,43.8514199844283],[5.54452228126406,43.81819693654997],[5.574599751241474,43.83029407148107],[5.627700103254839,43.830927143331614],[5.654445137414141,43.82511098585937],[5.674483353980397,43.807360446333846],[5.684551176087874,43.78850163078797],[5.713394551246806,43.77950341891952],[5.7184242970991175,43.75512132052309],[5.7491639540055255,43.7405464918297],[5.757332977582704,43.72940911375532],[5.753650891000443,43.72462222505303],[5.73694977606664,43.71600369956981],[5.7173496269448085,43.6935266901868],[5.6740823773888085,43.69354548263312],[5.647750486437068,43.675796002747234],[5.6069435191164425,43.65868590516478],[5.571561902428718,43.66192326389572],[5.532691768278144,43.658982498850435],[5.439245661034277,43.68110432174805],[5.341018959038618,43.719703701701896],[5.31850282672,43.73502143195822],[5.255713544202415,43.74655792640453],[5.229990308924739,43.74767288112555],[5.187972296540632,43.73510332278256],[5.173314396868251,43.7388086180006],[5.0496564330787725,43.788726353015356],[5.029533445304739,43.82779291313872],[4.996088984833567,43.846062979958205],[4.966309299927298,43.87164726913833],[4.925857913600155,43.886492676966505],[4.902319279838385,43.88793164631778],[4.885234592866442,43.90014657326699],[4.853093547765335,43.91138205123056],[4.82173604983078,43.912827836405015],[4.739060856654237,43.92405947349057],[4.779022226905269,43.937890875835855],[4.815061095574236,43.96762596960125],[4.8159847814707275,43.98880175042401],[4.842106431474998,43.98647433852841],[4.8376753047986,44.01494231096372],[4.789122145192578,44.05219781937887],[4.787978024928094,44.06505409747017],[4.757852990967429,44.07724513689432],[4.730134251131141,44.0790279145671],[4.707458356688192,44.10367246401244],[4.722074664233516,44.18742154948267],[4.705782650078868,44.192789712499234],[4.706545407713171,44.21443008164891],[4.676647952353196,44.212568030429516],[4.674835744164297,44.23855142877028],[4.654069363595851,44.25434245648795],[4.649223666100485,44.270359865010946]]]]},"properties":{"code":"84","nom":"Vaucluse"}}],"type":"FeatureCollection"}